{
  "type": "FeatureCollection",
  "features": [
    {
      "type": "Feature",
      "properties": {
        "name": "Ha Noi",
        "ten_tinh": "Ha Noi"
      },
      "geometry": {
        "type": "Polygon",
        "coordinates": [
          [
            [
              105.65,
              20.55
            ],
            [
              106.02,
              20.55
            ],
            [
              106.02,
              21.1
            ],
            [
              105.65,
              21.1
            ],
            [
              105.65,
              20.55
            ]
          ]
        ]
      }
    },
    {
      "type": "Feature",
      "properties": {
        "name": "Ha Giang",
        "ten_tinh": "Ha Giang"
      },
      "geometry": {
        "type": "Polygon",
        "coordinates": [
          [
            [
              104.4,
              22.5
            ],
            [
              105.6,
              22.5
            ],
            [
              105.6,
              23.4
            ],
            [
              104.4,
              23.4
            ],
            [
              104.4,
              22.5
            ]
          ]
        ]
      }
    },
    {
      "type": "Feature",
      "properties": {
        "name": "Cao Bang",
        "ten_tinh": "Cao Bang"
      },
      "geometry": {
        "type": "Polygon",
        "coordinates": [
          [
            [
              105.6,
              22.4
            ],
            [
              106.8,
              22.4
            ],
            [
              106.8,
              23.15
            ],
            [
              105.6,
              23.15
            ],
            [
              105.6,
              22.4
            ]
          ]
        ]
      }
    },
    {
      "type": "Feature",
      "properties": {
        "name": "Bac Kan",
        "ten_tinh": "Bac Kan"
      },
      "geometry": {
        "type": "Polygon",
        "coordinates": [
          [
            [
              105.4,
              21.8
            ],
            [
              106.1,
              21.8
            ],
            [
              106.1,
              22.7
            ],
            [
              105.4,
              22.7
            ],
            [
              105.4,
              21.8
            ]
          ]
        ]
      }
    },
    {
      "type": "Feature",
      "properties": {
        "name": "Tuyen Quang",
        "ten_tinh": "Tuyen Quang"
      },
      "geometry": {
        "type": "Polygon",
        "coordinates": [
          [
            [
              104.9,
              21.65
            ],
            [
              105.65,
              21.65
            ],
            [
              105.65,
              22.6
            ],
            [
              104.9,
              22.6
            ],
            [
              104.9,
              21.65
            ]
          ]
        ]
      }
    },
    {
      "type": "Feature",
      "properties": {
        "name": "Lao Cai",
        "ten_tinh": "Lao Cai"
      },
      "geometry": {
        "type": "Polygon",
        "coordinates": [
          [
            [
              103.55,
              22.05
            ],
            [
              104.5,
              22.05
            ],
            [
              104.5,
              22.95
            ],
            [
              103.55,
              22.95
            ],
            [
              103.55,
              22.05
            ]
          ]
        ]
      }
    },
    {
      "type": "Feature",
      "properties": {
        "name": "Dien Bien",
        "ten_tinh": "Dien Bien"
      },
      "geometry": {
        "type": "Polygon",
        "coordinates": [
          [
            [
              102.45,
              21.1
            ],
            [
              103.55,
              21.1
            ],
            [
              103.55,
              22.5
            ],
            [
              102.45,
              22.5
            ],
            [
              102.45,
              21.1
            ]
          ]
        ]
      }
    },
    {
      "type": "Feature",
      "properties": {
        "name": "Lai Chau",
        "ten_tinh": "Lai Chau"
      },
      "geometry": {
        "type": "Polygon",
        "coordinates": [
          [
            [
              102.7,
              22.15
            ],
            [
              103.6,
              22.15
            ],
            [
              103.6,
              22.9
            ],
            [
              102.7,
              22.9
            ],
            [
              102.7,
              22.15
            ]
          ]
        ]
      }
    },
    {
      "type": "Feature",
      "properties": {
        "name": "Son La",
        "ten_tinh": "Son La"
      },
      "geometry": {
        "type": "Polygon",
        "coordinates": [
          [
            [
              103.1,
              20.6
            ],
            [
              105.05,
              20.6
            ],
            [
              105.05,
              21.75
            ],
            [
              103.1,
              21.75
            ],
            [
              103.1,
              20.6
            ]
          ]
        ]
      }
    },
    {
      "type": "Feature",
      "properties": {
        "name": "Yen Bai",
        "ten_tinh": "Yen Bai"
      },
      "geometry": {
        "type": "Polygon",
        "coordinates": [
          [
            [
              103.95,
              21.5
            ],
            [
              105.05,
              21.5
            ],
            [
              105.05,
              22.4
            ],
            [
              103.95,
              22.4
            ],
            [
              103.95,
              21.5
            ]
          ]
        ]
      }
    },
    {
      "type": "Feature",
      "properties": {
        "name": "Hoa Binh",
        "ten_tinh": "Hoa Binh"
      },
      "geometry": {
        "type": "Polygon",
        "coordinates": [
          [
            [
              104.95,
              20.2
            ],
            [
              105.75,
              20.2
            ],
            [
              105.75,
              21.3
            ],
            [
              104.95,
              21.3
            ],
            [
              104.95,
              20.2
            ]
          ]
        ]
      }
    },
    {
      "type": "Feature",
      "properties": {
        "name": "Thai Nguyen",
        "ten_tinh": "Thai Nguyen"
      },
      "geometry": {
        "type": "Polygon",
        "coordinates": [
          [
            [
              105.45,
              21.3
            ],
            [
              106.2,
              21.3
            ],
            [
              106.2,
              22.05
            ],
            [
              105.45,
              22.05
            ],
            [
              105.45,
              21.3
            ]
          ]
        ]
      }
    },
    {
      "type": "Feature",
      "properties": {
        "name": "Lang Son",
        "ten_tinh": "Lang Son"
      },
      "geometry": {
        "type": "Polygon",
        "coordinates": [
          [
            [
              106.25,
              21.65
            ],
            [
              107.25,
              21.65
            ],
            [
              107.25,
              22.45
            ],
            [
              106.25,
              22.45
            ],
            [
              106.25,
              21.65
            ]
          ]
        ]
      }
    },
    {
      "type": "Feature",
      "properties": {
        "name": "Quang Ninh",
        "ten_tinh": "Quang Ninh"
      },
      "geometry": {
        "type": "Polygon",
        "coordinates": [
          [
            [
              106.55,
              20.8
            ],
            [
              108.1,
              20.8
            ],
            [
              108.1,
              21.8
            ],
            [
              106.55,
              21.8
            ],
            [
              106.55,
              20.8
            ]
          ]
        ]
      }
    },
    {
      "type": "Feature",
      "properties": {
        "name": "Bac Giang",
        "ten_tinh": "Bac Giang"
      },
      "geometry": {
        "type": "Polygon",
        "coordinates": [
          [
            [
              106.0,
              21.15
            ],
            [
              106.8,
              21.15
            ],
            [
              106.8,
              21.75
            ],
            [
              106.0,
              21.75
            ],
            [
              106.0,
              21.15
            ]
          ]
        ]
      }
    },
    {
      "type": "Feature",
      "properties": {
        "name": "Phu Tho",
        "ten_tinh": "Phu Tho"
      },
      "geometry": {
        "type": "Polygon",
        "coordinates": [
          [
            [
              104.65,
              21.05
            ],
            [
              105.45,
              21.05
            ],
            [
              105.45,
              21.7
            ],
            [
              104.65,
              21.7
            ],
            [
              104.65,
              21.05
            ]
          ]
        ]
      }
    },
    {
      "type": "Feature",
      "properties": {
        "name": "Vinh Phuc",
        "ten_tinh": "Vinh Phuc"
      },
      "geometry": {
        "type": "Polygon",
        "coordinates": [
          [
            [
              105.35,
              21.05
            ],
            [
              105.85,
              21.05
            ],
            [
              105.85,
              21.45
            ],
            [
              105.35,
              21.45
            ],
            [
              105.35,
              21.05
            ]
          ]
        ]
      }
    },
    {
      "type": "Feature",
      "properties": {
        "name": "Bac Ninh",
        "ten_tinh": "Bac Ninh"
      },
      "geometry": {
        "type": "Polygon",
        "coordinates": [
          [
            [
              105.95,
              21.0
            ],
            [
              106.35,
              21.0
            ],
            [
              106.35,
              21.35
            ],
            [
              105.95,
              21.35
            ],
            [
              105.95,
              21.0
            ]
          ]
        ]
      }
    },
    {
      "type": "Feature",
      "properties": {
        "name": "Hai Duong",
        "ten_tinh": "Hai Duong"
      },
      "geometry": {
        "type": "Polygon",
        "coordinates": [
          [
            [
              106.15,
              20.7
            ],
            [
              106.6,
              20.7
            ],
            [
              106.6,
              21.1
            ],
            [
              106.15,
              21.1
            ],
            [
              106.15,
              20.7
            ]
          ]
        ]
      }
    },
    {
      "type": "Feature",
      "properties": {
        "name": "Hai Phong",
        "ten_tinh": "Hai Phong"
      },
      "geometry": {
        "type": "Polygon",
        "coordinates": [
          [
            [
              106.5,
              20.55
            ],
            [
              107.05,
              20.55
            ],
            [
              107.05,
              21.0
            ],
            [
              106.5,
              21.0
            ],
            [
              106.5,
              20.55
            ]
          ]
        ]
      }
    },
    {
      "type": "Feature",
      "properties": {
        "name": "Hung Yen",
        "ten_tinh": "Hung Yen"
      },
      "geometry": {
        "type": "Polygon",
        "coordinates": [
          [
            [
              105.9,
              20.6
            ],
            [
              106.2,
              20.6
            ],
            [
              106.2,
              21.0
            ],
            [
              105.9,
              21.0
            ],
            [
              105.9,
              20.6
            ]
          ]
        ]
      }
    },
    {
      "type": "Feature",
      "properties": {
        "name": "Thai Binh",
        "ten_tinh": "Thai Binh"
      },
      "geometry": {
        "type": "Polygon",
        "coordinates": [
          [
            [
              106.1,
              20.3
            ],
            [
              106.55,
              20.3
            ],
            [
              106.55,
              20.75
            ],
            [
              106.1,
              20.75
            ],
            [
              106.1,
              20.3
            ]
          ]
        ]
      }
    },
    {
      "type": "Feature",
      "properties": {
        "name": "Ha Nam",
        "ten_tinh": "Ha Nam"
      },
      "geometry": {
        "type": "Polygon",
        "coordinates": [
          [
            [
              105.75,
              20.3
            ],
            [
              106.2,
              20.3
            ],
            [
              106.2,
              20.75
            ],
            [
              105.75,
              20.75
            ],
            [
              105.75,
              20.3
            ]
          ]
        ]
      }
    },
    {
      "type": "Feature",
      "properties": {
        "name": "Nam Dinh",
        "ten_tinh": "Nam Dinh"
      },
      "geometry": {
        "type": "Polygon",
        "coordinates": [
          [
            [
              106.0,
              20.0
            ],
            [
              106.55,
              20.0
            ],
            [
              106.55,
              20.45
            ],
            [
              106.0,
              20.45
            ],
            [
              106.0,
              20.0
            ]
          ]
        ]
      }
    },
    {
      "type": "Feature",
      "properties": {
        "name": "Ninh Binh",
        "ten_tinh": "Ninh Binh"
      },
      "geometry": {
        "type": "Polygon",
        "coordinates": [
          [
            [
              105.7,
              19.85
            ],
            [
              106.2,
              19.85
            ],
            [
              106.2,
              20.45
            ],
            [
              105.7,
              20.45
            ],
            [
              105.7,
              19.85
            ]
          ]
        ]
      }
    },
    {
      "type": "Feature",
      "properties": {
        "name": "Thanh Hoa",
        "ten_tinh": "Thanh Hoa"
      },
      "geometry": {
        "type": "Polygon",
        "coordinates": [
          [
            [
              104.45,
              19.3
            ],
            [
              106.05,
              19.3
            ],
            [
              106.05,
              20.4
            ],
            [
              104.45,
              20.4
            ],
            [
              104.45,
              19.3
            ]
          ]
        ]
      }
    },
    {
      "type": "Feature",
      "properties": {
        "name": "Nghe An",
        "ten_tinh": "Nghe An"
      },
      "geometry": {
        "type": "Polygon",
        "coordinates": [
          [
            [
              103.95,
              18.65
            ],
            [
              105.8,
              18.65
            ],
            [
              105.8,
              20.1
            ],
            [
              103.95,
              20.1
            ],
            [
              103.95,
              18.65
            ]
          ]
        ]
      }
    },
    {
      "type": "Feature",
      "properties": {
        "name": "Ha Tinh",
        "ten_tinh": "Ha Tinh"
      },
      "geometry": {
        "type": "Polygon",
        "coordinates": [
          [
            [
              105.5,
              17.9
            ],
            [
              106.3,
              17.9
            ],
            [
              106.3,
              18.8
            ],
            [
              105.5,
              18.8
            ],
            [
              105.5,
              17.9
            ]
          ]
        ]
      }
    },
    {
      "type": "Feature",
      "properties": {
        "name": "Quang Binh",
        "ten_tinh": "Quang Binh"
      },
      "geometry": {
        "type": "Polygon",
        "coordinates": [
          [
            [
              105.8,
              17.05
            ],
            [
              106.6,
              17.05
            ],
            [
              106.6,
              18.2
            ],
            [
              105.8,
              18.2
            ],
            [
              105.8,
              17.05
            ]
          ]
        ]
      }
    },
    {
      "type": "Feature",
      "properties": {
        "name": "Quang Tri",
        "ten_tinh": "Quang Tri"
      },
      "geometry": {
        "type": "Polygon",
        "coordinates": [
          [
            [
              106.45,
              16.6
            ],
            [
              107.4,
              16.6
            ],
            [
              107.4,
              17.3
            ],
            [
              106.45,
              17.3
            ],
            [
              106.45,
              16.6
            ]
          ]
        ]
      }
    },
    {
      "type": "Feature",
      "properties": {
        "name": "Thua Thien Hue",
        "ten_tinh": "Thua Thien Hue"
      },
      "geometry": {
        "type": "Polygon",
        "coordinates": [
          [
            [
              107.2,
              15.95
            ],
            [
              108.2,
              15.95
            ],
            [
              108.2,
              16.8
            ],
            [
              107.2,
              16.8
            ],
            [
              107.2,
              15.95
            ]
          ]
        ]
      }
    },
    {
      "type": "Feature",
      "properties": {
        "name": "Da Nang",
        "ten_tinh": "Da Nang"
      },
      "geometry": {
        "type": "Polygon",
        "coordinates": [
          [
            [
              107.85,
              15.85
            ],
            [
              108.35,
              15.85
            ],
            [
              108.35,
              16.25
            ],
            [
              107.85,
              16.25
            ],
            [
              107.85,
              15.85
            ]
          ]
        ]
      }
    },
    {
      "type": "Feature",
      "properties": {
        "name": "Quang Nam",
        "ten_tinh": "Quang Nam"
      },
      "geometry": {
        "type": "Polygon",
        "coordinates": [
          [
            [
              107.5,
              15.25
            ],
            [
              108.6,
              15.25
            ],
            [
              108.6,
              16.15
            ],
            [
              107.5,
              16.15
            ],
            [
              107.5,
              15.25
            ]
          ]
        ]
      }
    },
    {
      "type": "Feature",
      "properties": {
        "name": "Quang Ngai",
        "ten_tinh": "Quang Ngai"
      },
      "geometry": {
        "type": "Polygon",
        "coordinates": [
          [
            [
              108.4,
              14.55
            ],
            [
              109.1,
              14.55
            ],
            [
              109.1,
              15.4
            ],
            [
              108.4,
              15.4
            ],
            [
              108.4,
              14.55
            ]
          ]
        ]
      }
    },
    {
      "type": "Feature",
      "properties": {
        "name": "Binh Dinh",
        "ten_tinh": "Binh Dinh"
      },
      "geometry": {
        "type": "Polygon",
        "coordinates": [
          [
            [
              108.55,
              13.55
            ],
            [
              109.4,
              13.55
            ],
            [
              109.4,
              14.65
            ],
            [
              108.55,
              14.65
            ],
            [
              108.55,
              13.55
            ]
          ]
        ]
      }
    },
    {
      "type": "Feature",
      "properties": {
        "name": "Phu Yen",
        "ten_tinh": "Phu Yen"
      },
      "geometry": {
        "type": "Polygon",
        "coordinates": [
          [
            [
              108.65,
              12.9
            ],
            [
              109.45,
              12.9
            ],
            [
              109.45,
              13.65
            ],
            [
              108.65,
              13.65
            ],
            [
              108.65,
              12.9
            ]
          ]
        ]
      }
    },
    {
      "type": "Feature",
      "properties": {
        "name": "Khanh Hoa",
        "ten_tinh": "Khanh Hoa"
      },
      "geometry": {
        "type": "Polygon",
        "coordinates": [
          [
            [
              108.7,
              11.75
            ],
            [
              109.5,
              11.75
            ],
            [
              109.5,
              12.7
            ],
            [
              108.7,
              12.7
            ],
            [
              108.7,
              11.75
            ]
          ]
        ]
      }
    },
    {
      "type": "Feature",
      "properties": {
        "name": "Ninh Thuan",
        "ten_tinh": "Ninh Thuan"
      },
      "geometry": {
        "type": "Polygon",
        "coordinates": [
          [
            [
              108.55,
              11.3
            ],
            [
              109.25,
              11.3
            ],
            [
              109.25,
              12.0
            ],
            [
              108.55,
              12.0
            ],
            [
              108.55,
              11.3
            ]
          ]
        ]
      }
    },
    {
      "type": "Feature",
      "properties": {
        "name": "Binh Thuan",
        "ten_tinh": "Binh Thuan"
      },
      "geometry": {
        "type": "Polygon",
        "coordinates": [
          [
            [
              107.35,
              10.65
            ],
            [
              108.85,
              10.65
            ],
            [
              108.85,
              11.65
            ],
            [
              107.35,
              11.65
            ],
            [
              107.35,
              10.65
            ]
          ]
        ]
      }
    },
    {
      "type": "Feature",
      "properties": {
        "name": "Kon Tum",
        "ten_tinh": "Kon Tum"
      },
      "geometry": {
        "type": "Polygon",
        "coordinates": [
          [
            [
              107.2,
              14.0
            ],
            [
              108.45,
              14.0
            ],
            [
              108.45,
              15.15
            ],
            [
              107.2,
              15.15
            ],
            [
              107.2,
              14.0
            ]
          ]
        ]
      }
    },
    {
      "type": "Feature",
      "properties": {
        "name": "Gia Lai",
        "ten_tinh": "Gia Lai"
      },
      "geometry": {
        "type": "Polygon",
        "coordinates": [
          [
            [
              107.35,
              13.2
            ],
            [
              108.95,
              13.2
            ],
            [
              108.95,
              14.55
            ],
            [
              107.35,
              14.55
            ],
            [
              107.35,
              13.2
            ]
          ]
        ]
      }
    },
    {
      "type": "Feature",
      "properties": {
        "name": "Dak Lak",
        "ten_tinh": "Dak Lak"
      },
      "geometry": {
        "type": "Polygon",
        "coordinates": [
          [
            [
              107.6,
              12.25
            ],
            [
              108.9,
              12.25
            ],
            [
              108.9,
              13.3
            ],
            [
              107.6,
              13.3
            ],
            [
              107.6,
              12.25
            ]
          ]
        ]
      }
    },
    {
      "type": "Feature",
      "properties": {
        "name": "Dak Nong",
        "ten_tinh": "Dak Nong"
      },
      "geometry": {
        "type": "Polygon",
        "coordinates": [
          [
            [
              107.1,
              11.65
            ],
            [
              108.4,
              11.65
            ],
            [
              108.4,
              12.45
            ],
            [
              107.1,
              12.45
            ],
            [
              107.1,
              11.65
            ]
          ]
        ]
      }
    },
    {
      "type": "Feature",
      "properties": {
        "name": "Lam Dong",
        "ten_tinh": "Lam Dong"
      },
      "geometry": {
        "type": "Polygon",
        "coordinates": [
          [
            [
              107.6,
              11.2
            ],
            [
              108.9,
              11.2
            ],
            [
              108.9,
              12.45
            ],
            [
              107.6,
              12.45
            ],
            [
              107.6,
              11.2
            ]
          ]
        ]
      }
    },
    {
      "type": "Feature",
      "properties": {
        "name": "Binh Phuoc",
        "ten_tinh": "Binh Phuoc"
      },
      "geometry": {
        "type": "Polygon",
        "coordinates": [
          [
            [
              106.55,
              11.35
            ],
            [
              107.55,
              11.35
            ],
            [
              107.55,
              12.25
            ],
            [
              106.55,
              12.25
            ],
            [
              106.55,
              11.35
            ]
          ]
        ]
      }
    },
    {
      "type": "Feature",
      "properties": {
        "name": "Tay Ninh",
        "ten_tinh": "Tay Ninh"
      },
      "geometry": {
        "type": "Polygon",
        "coordinates": [
          [
            [
              105.75,
              10.85
            ],
            [
              106.65,
              10.85
            ],
            [
              106.65,
              11.7
            ],
            [
              105.75,
              11.7
            ],
            [
              105.75,
              10.85
            ]
          ]
        ]
      }
    },
    {
      "type": "Feature",
      "properties": {
        "name": "Binh Duong",
        "ten_tinh": "Binh Duong"
      },
      "geometry": {
        "type": "Polygon",
        "coordinates": [
          [
            [
              106.55,
              10.7
            ],
            [
              107.05,
              10.7
            ],
            [
              107.05,
              11.45
            ],
            [
              106.55,
              11.45
            ],
            [
              106.55,
              10.7
            ]
          ]
        ]
      }
    },
    {
      "type": "Feature",
      "properties": {
        "name": "Dong Nai",
        "ten_tinh": "Dong Nai"
      },
      "geometry": {
        "type": "Polygon",
        "coordinates": [
          [
            [
              106.75,
              10.5
            ],
            [
              107.65,
              10.5
            ],
            [
              107.65,
              11.5
            ],
            [
              106.75,
              11.5
            ],
            [
              106.75,
              10.5
            ]
          ]
        ]
      }
    },
    {
      "type": "Feature",
      "properties": {
        "name": "Ba Ria Vung Tau",
        "ten_tinh": "Ba Ria Vung Tau"
      },
      "geometry": {
        "type": "Polygon",
        "coordinates": [
          [
            [
              107.1,
              10.35
            ],
            [
              107.8,
              10.35
            ],
            [
              107.8,
              10.8
            ],
            [
              107.1,
              10.8
            ],
            [
              107.1,
              10.35
            ]
          ]
        ]
      }
    },
    {
      "type": "Feature",
      "properties": {
        "name": "Ho Chi Minh City",
        "ten_tinh": "Ho Chi Minh City"
      },
      "geometry": {
        "type": "Polygon",
        "coordinates": [
          [
            [
              106.4,
              10.35
            ],
            [
              107.05,
              10.35
            ],
            [
              107.05,
              11.0
            ],
            [
              106.4,
              11.0
            ],
            [
              106.4,
              10.35
            ]
          ]
        ]
      }
    },
    {
      "type": "Feature",
      "properties": {
        "name": "Long An",
        "ten_tinh": "Long An"
      },
      "geometry": {
        "type": "Polygon",
        "coordinates": [
          [
            [
              105.7,
              10.3
            ],
            [
              106.4,
              10.3
            ],
            [
              106.4,
              11.0
            ],
            [
              105.7,
              11.0
            ],
            [
              105.7,
              10.3
            ]
          ]
        ]
      }
    },
    {
      "type": "Feature",
      "properties": {
        "name": "Tien Giang",
        "ten_tinh": "Tien Giang"
      },
      "geometry": {
        "type": "Polygon",
        "coordinates": [
          [
            [
              105.8,
              10.15
            ],
            [
              106.6,
              10.15
            ],
            [
              106.6,
              10.65
            ],
            [
              105.8,
              10.65
            ],
            [
              105.8,
              10.15
            ]
          ]
        ]
      }
    },
    {
      "type": "Feature",
      "properties": {
        "name": "Ben Tre",
        "ten_tinh": "Ben Tre"
      },
      "geometry": {
        "type": "Polygon",
        "coordinates": [
          [
            [
              106.2,
              9.95
            ],
            [
              106.75,
              9.95
            ],
            [
              106.75,
              10.4
            ],
            [
              106.2,
              10.4
            ],
            [
              106.2,
              9.95
            ]
          ]
        ]
      }
    },
    {
      "type": "Feature",
      "properties": {
        "name": "Tra Vinh",
        "ten_tinh": "Tra Vinh"
      },
      "geometry": {
        "type": "Polygon",
        "coordinates": [
          [
            [
              105.95,
              9.65
            ],
            [
              106.6,
              9.65
            ],
            [
              106.6,
              10.2
            ],
            [
              105.95,
              10.2
            ],
            [
              105.95,
              9.65
            ]
          ]
        ]
      }
    },
    {
      "type": "Feature",
      "properties": {
        "name": "Vinh Long",
        "ten_tinh": "Vinh Long"
      },
      "geometry": {
        "type": "Polygon",
        "coordinates": [
          [
            [
              105.7,
              9.9
            ],
            [
              106.2,
              9.9
            ],
            [
              106.2,
              10.45
            ],
            [
              105.7,
              10.45
            ],
            [
              105.7,
              9.9
            ]
          ]
        ]
      }
    },
    {
      "type": "Feature",
      "properties": {
        "name": "Dong Thap",
        "ten_tinh": "Dong Thap"
      },
      "geometry": {
        "type": "Polygon",
        "coordinates": [
          [
            [
              105.3,
              10.05
            ],
            [
              106.0,
              10.05
            ],
            [
              106.0,
              10.8
            ],
            [
              105.3,
              10.8
            ],
            [
              105.3,
              10.05
            ]
          ]
        ]
      }
    },
    {
      "type": "Feature",
      "properties": {
        "name": "An Giang",
        "ten_tinh": "An Giang"
      },
      "geometry": {
        "type": "Polygon",
        "coordinates": [
          [
            [
              104.8,
              10.25
            ],
            [
              105.55,
              10.25
            ],
            [
              105.55,
              10.95
            ],
            [
              104.8,
              10.95
            ],
            [
              104.8,
              10.25
            ]
          ]
        ]
      }
    },
    {
      "type": "Feature",
      "properties": {
        "name": "Kien Giang",
        "ten_tinh": "Kien Giang"
      },
      "geometry": {
        "type": "Polygon",
        "coordinates": [
          [
            [
              104.3,
              9.45
            ],
            [
              105.35,
              9.45
            ],
            [
              105.35,
              10.55
            ],
            [
              104.3,
              10.55
            ],
            [
              104.3,
              9.45
            ]
          ]
        ]
      }
    },
    {
      "type": "Feature",
      "properties": {
        "name": "Can Tho",
        "ten_tinh": "Can Tho"
      },
      "geometry": {
        "type": "Polygon",
        "coordinates": [
          [
            [
              105.55,
              9.9
            ],
            [
              105.9,
              9.9
            ],
            [
              105.9,
              10.35
            ],
            [
              105.55,
              10.35
            ],
            [
              105.55,
              9.9
            ]
          ]
        ]
      }
    },
    {
      "type": "Feature",
      "properties": {
        "name": "Hau Giang",
        "ten_tinh": "Hau Giang"
      },
      "geometry": {
        "type": "Polygon",
        "coordinates": [
          [
            [
              105.4,
              9.55
            ],
            [
              105.85,
              9.55
            ],
            [
              105.85,
              10.0
            ],
            [
              105.4,
              10.0
            ],
            [
              105.4,
              9.55
            ]
          ]
        ]
      }
    },
    {
      "type": "Feature",
      "properties": {
        "name": "Soc Trang",
        "ten_tinh": "Soc Trang"
      },
      "geometry": {
        "type": "Polygon",
        "coordinates": [
          [
            [
              105.65,
              9.35
            ],
            [
              106.25,
              9.35
            ],
            [
              106.25,
              9.9
            ],
            [
              105.65,
              9.9
            ],
            [
              105.65,
              9.35
            ]
          ]
        ]
      }
    },
    {
      "type": "Feature",
      "properties": {
        "name": "Bac Lieu",
        "ten_tinh": "Bac Lieu"
      },
      "geometry": {
        "type": "Polygon",
        "coordinates": [
          [
            [
              105.25,
              9.05
            ],
            [
              105.85,
              9.05
            ],
            [
              105.85,
              9.65
            ],
            [
              105.25,
              9.65
            ],
            [
              105.25,
              9.05
            ]
          ]
        ]
      }
    },
    {
      "type": "Feature",
      "properties": {
        "name": "Ca Mau",
        "ten_tinh": "Ca Mau"
      },
      "geometry": {
        "type": "Polygon",
        "coordinates": [
          [
            [
              104.65,
              8.55
            ],
            [
              105.45,
              8.55
            ],
            [
              105.45,
              9.35
            ],
            [
              104.65,
              9.35
            ],
            [
              104.65,
              8.55
            ]
          ]
        ]
      }
    }
  ]
}